start=new Date('2022-07-23T00:00:00.000Z').valueOf();
sats=[{"SEMIMAJOR_AXIS":"6925.412","INCLINATION":"53.0545","PERIOD":"95.593","REF_FRAME":"TEME","ARG_OF_PERICENTER":"90.0883","TLE_LINE2":"2 45555  53.0545 279.0920 0001368  90.0883 270.0263 15.06379275125512","TLE_LINE1":"1 45555U 20025AA  22203.72700803  .00004588  00000-0  32689-3 0  9995","OBJECT_TYPE":"PAYLOAD","NORAD_CAT_ID":"45555","EPHEMERIS_TYPE":"0","MEAN_MOTION_DDOT":"0.0000000000000","BSTAR":"0.00032689000000","COUNTRY_CODE":"US","MEAN_MOTION_DOT":"0.00004588","CENTER_NAME":"EARTH","MEAN_ANOMALY":"270.0263","RCS_SIZE":"LARGE","MEAN_MOTION":"15.06379275","TIME_SYSTEM":"UTC","SITE":"AFETR","PERIAPSIS":"546.330","FILE":"3519932","APOAPSIS":"548.224","ECCENTRICITY":"0.00013680","GP_ID":"208667005","ELEMENT_SET_NO":"999","CLASSIFICATION_TYPE":"U","MEAN_ELEMENT_THEORY":"SGP4","RA_OF_ASC_NODE":"279.0920","OBJECT_ID":"2020-025AA","REV_AT_EPOCH":"12551","EPOCH":"2022-07-22T17:26:53.493792","DECAY_DATE":null,"OBJECT_NAME":"STARLINK-1327","LAUNCH_DATE":"2020-04-22"},{"PERIAPSIS":"546.222","SITE":"AFETR","TIME_SYSTEM":"UTC","ELEMENT_SET_NO":"999","CLASSIFICATION_TYPE":"U","GP_ID":"208667255","ECCENTRICITY":"0.00014620","FILE":"3519932","APOAPSIS":"548.247","REV_AT_EPOCH":"12548","EPOCH":"2022-07-22T12:03:05.954400","RA_OF_ASC_NODE":"280.1188","OBJECT_ID":"2020-025AB","MEAN_ELEMENT_THEORY":"SGP4","OBJECT_NAME":"STARLINK-1334","LAUNCH_DATE":"2020-04-22","DECAY_DATE":null,"REF_FRAME":"TEME","ARG_OF_PERICENTER":"71.4531","INCLINATION":"53.0536","PERIOD":"95.593","SEMIMAJOR_AXIS":"6925.370","OBJECT_TYPE":"PAYLOAD","TLE_LINE1":"1 45556U 20025AB  22203.50215225  .00000220  00000-0  33664-4 0  9995","TLE_LINE2":"2 45556  53.0536 280.1188 0001462  71.4531 288.6616 15.06393136125485","MEAN_MOTION_DOT":"0.00000220","CENTER_NAME":"EARTH","COUNTRY_CODE":"US","BSTAR":"0.00003366400000","MEAN_MOTION_DDOT":"0.0000000000000","EPHEMERIS_TYPE":"0","NORAD_CAT_ID":"45556","MEAN_MOTION":"15.06393136","RCS_SIZE":"LARGE","MEAN_ANOMALY":"288.6616"},{"APOAPSIS":"547.917","FILE":"3519932","ELEMENT_SET_NO":"999","CLASSIFICATION_TYPE":"U","GP_ID":"208668506","ECCENTRICITY":"0.00009690","SITE":"AFETR","TIME_SYSTEM":"UTC","PERIAPSIS":"546.575","DECAY_DATE":null,"LAUNCH_DATE":"2020-04-22","OBJECT_NAME":"STARLINK-1336","MEAN_ELEMENT_THEORY":"SGP4","REV_AT_EPOCH":"12548","EPOCH":"2022-07-22T12:13:43.983840","RA_OF_ASC_NODE":"280.0834","OBJECT_ID":"2020-025AC","OBJECT_TYPE":"PAYLOAD","TLE_LINE2":"2 45557  53.0558 280.0834 0000969  95.2888 264.8212 15.06389299125480","TLE_LINE1":"1 45557U 20025AC  22203.50953685 -.00000316  00000-0 -23322-5 0  9994","PERIOD":"95.593","INCLINATION":"53.0558","SEMIMAJOR_AXIS":"6925.381","REF_FRAME":"TEME","ARG_OF_PERICENTER":"95.2888","RCS_SIZE":"LARGE","MEAN_ANOMALY":"264.8212","MEAN_MOTION":"15.06389299","MEAN_MOTION_DDOT":"0.0000000000000","EPHEMERIS_TYPE":"0","NORAD_CAT_ID":"45557","CENTER_NAME":"EARTH","MEAN_MOTION_DOT":"-0.00000316","COUNTRY_CODE":"US","BSTAR":"-0.00000233220000"},{"SITE":"AFETR","TIME_SYSTEM":"UTC","PERIAPSIS":"546.780","FILE":"3519932","APOAPSIS":"547.707","CLASSIFICATION_TYPE":"U","ELEMENT_SET_NO":"999","GP_ID":"208668239","ECCENTRICITY":"0.00006690","MEAN_ELEMENT_THEORY":"SGP4","EPOCH":"2022-07-22T11:25:56.679744","REV_AT_EPOCH":"12547","OBJECT_ID":"2020-025AD","RA_OF_ASC_NODE":"280.2352","DECAY_DATE":null,"LAUNCH_DATE":"2020-04-22","OBJECT_NAME":"STARLINK-1342","INCLINATION":"53.0544","PERIOD":"95.593","SEMIMAJOR_AXIS":"6925.379","ARG_OF_PERICENTER":"80.2536","REF_FRAME":"TEME","OBJECT_TYPE":"PAYLOAD","TLE_LINE1":"1 45558U 20025AD  22203.47635046  .00002424  00000-0  18161-3 0  9992","TLE_LINE2":"2 45558  53.0544 280.2352 0000669  80.2536 279.8529 15.06390164125473","MEAN_MOTION_DDOT":"0.0000000000000","EPHEMERIS_TYPE":"0","NORAD_CAT_ID":"45558","MEAN_MOTION_DOT":"0.00002424","CENTER_NAME":"EARTH","COUNTRY_CODE":"US","BSTAR":"0.00018161000000","RCS_SIZE":"LARGE","MEAN_ANOMALY":"279.8529","MEAN_MOTION":"15.06390164"},{"SEMIMAJOR_AXIS":"6925.411","INCLINATION":"53.0537","PERIOD":"95.593","ARG_OF_PERICENTER":"65.2561","REF_FRAME":"TEME","OBJECT_TYPE":"PAYLOAD","TLE_LINE2":"2 45559  53.0537 280.0183 0001177  65.2561 294.8550 15.06379691125486","TLE_LINE1":"1 45559U 20025AE  22203.50858360 -.00000673  00000-0 -26304-4 0  9998","EPHEMERIS_TYPE":"0","NORAD_CAT_ID":"45559","MEAN_MOTION_DDOT":"0.0000000000000","COUNTRY_CODE":"US","BSTAR":"-0.00002630400000","CENTER_NAME":"EARTH","MEAN_MOTION_DOT":"-0.00000673","RCS_SIZE":"LARGE","MEAN_ANOMALY":"294.8550","MEAN_MOTION":"15.06379691","SITE":"AFETR","TIME_SYSTEM":"UTC","PERIAPSIS":"546.461","APOAPSIS":"548.091","FILE":"3519932","ELEMENT_SET_NO":"999","CLASSIFICATION_TYPE":"U","ECCENTRICITY":"0.00011770","GP_ID":"208667506","MEAN_ELEMENT_THEORY":"SGP4","OBJECT_ID":"2020-025AE","RA_OF_ASC_NODE":"280.0183","EPOCH":"2022-07-22T12:12:21.623040","REV_AT_EPOCH":"12548","DECAY_DATE":null,"LAUNCH_DATE":"2020-04-22","OBJECT_NAME":"STARLINK-1344"},{"EPHEMERIS_TYPE":"0","NORAD_CAT_ID":"45560","MEAN_MOTION_DDOT":"0.0000000000000","COUNTRY_CODE":"US","BSTAR":"0.00024623000000","MEAN_MOTION_DOT":"0.00003388","CENTER_NAME":"EARTH","RCS_SIZE":"LARGE","MEAN_ANOMALY":"276.7592","MEAN_MOTION":"15.06400574","SEMIMAJOR_AXIS":"6925.347","INCLINATION":"53.0541","PERIOD":"95.592","ARG_OF_PERICENTER":"83.3571","REF_FRAME":"TEME","OBJECT_TYPE":"PAYLOAD","TLE_LINE2":"2 45560  53.0541 270.1190 0001522  83.3571 276.7592 15.06400574125623","TLE_LINE1":"1 45560U 20025AF  22203.49844602  .00003388  00000-0  24623-3 0  9997","MEAN_ELEMENT_THEORY":"SGP4","OBJECT_ID":"2020-025AF","RA_OF_ASC_NODE":"270.1190","EPOCH":"2022-07-22T11:57:45.736128","REV_AT_EPOCH":"12562","DECAY_DATE":null,"OBJECT_NAME":"STARLINK-1346","LAUNCH_DATE":"2020-04-22","SITE":"AFETR","TIME_SYSTEM":"UTC","PERIAPSIS":"546.158","APOAPSIS":"548.266","FILE":"3519932","ELEMENT_SET_NO":"999","CLASSIFICATION_TYPE":"U","ECCENTRICITY":"0.00015220","GP_ID":"208667756"},{"PERIAPSIS":"520.727","SITE":"AFETR","TIME_SYSTEM":"UTC","CLASSIFICATION_TYPE":"U","ELEMENT_SET_NO":"999","GP_ID":"208668007","ECCENTRICITY":"0.00016630","FILE":"3519932","APOAPSIS":"523.022","EPOCH":"2022-07-22T19:28:45.521472","REV_AT_EPOCH":"12683","RA_OF_ASC_NODE":"186.0426","OBJECT_ID":"2020-025AG","MEAN_ELEMENT_THEORY":"SGP4","OBJECT_NAME":"STARLINK-1348","LAUNCH_DATE":"2020-04-22","DECAY_DATE":null,"REF_FRAME":"TEME","ARG_OF_PERICENTER":"40.9110","PERIOD":"95.068","INCLINATION":"53.0536","SEMIMAJOR_AXIS":"6900.010","OBJECT_TYPE":"PAYLOAD","TLE_LINE1":"1 45561U 20025AG  22203.81163798  .00019951  00000-0  10781-2 0  9996","TLE_LINE2":"2 45561  53.0536 186.0426 0001663  40.9110 319.2007 15.14705486126836","MEAN_MOTION_DOT":"0.00019951","CENTER_NAME":"EARTH","COUNTRY_CODE":"US","BSTAR":"0.00107810000000","MEAN_MOTION_DDOT":"0.0000000000000","EPHEMERIS_TYPE":"0","NORAD_CAT_ID":"45561","MEAN_MOTION":"15.14705486","RCS_SIZE":"LARGE","MEAN_ANOMALY":"319.2007"},{"ARG_OF_PERICENTER":"88.6370","REF_FRAME":"TEME","SEMIMAJOR_AXIS":"6925.396","PERIOD":"95.593","INCLINATION":"53.0530","OBJECT_TYPE":"PAYLOAD","TLE_LINE2":"2 45562  53.0530 280.0124 0001325  88.6370 271.4771 15.06384454125489","TLE_LINE1":"1 45562U 20025AH  22203.52058622 -.00001161  00000-0 -59103-4 0  9993","COUNTRY_CODE":"US","BSTAR":"-0.00005910300000","MEAN_MOTION_DOT":"-0.00001161","CENTER_NAME":"EARTH","EPHEMERIS_TYPE":"0","NORAD_CAT_ID":"45562","MEAN_MOTION_DDOT":"0.0000000000000","MEAN_MOTION":"15.06384454","RCS_SIZE":"LARGE","MEAN_ANOMALY":"271.4771","PERIAPSIS":"546.344","SITE":"AFETR","TIME_SYSTEM":"UTC","ELEMENT_SET_NO":"999","CLASSIFICATION_TYPE":"U","GP_ID":"208668738","ECCENTRICITY":"0.00013250","APOAPSIS":"548.179","FILE":"3519932","RA_OF_ASC_NODE":"280.0124","OBJECT_ID":"2020-025AH","REV_AT_EPOCH":"12548","EPOCH":"2022-07-22T12:29:38.649408","MEAN_ELEMENT_THEORY":"SGP4","LAUNCH_DATE":"2020-04-22","OBJECT_NAME":"STARLINK-1354","DECAY_DATE":null},{"SITE":"AFETR","TIME_SYSTEM":"UTC","PERIAPSIS":"546.264","APOAPSIS":"548.142","FILE":"3519932","ELEMENT_SET_NO":"999","CLASSIFICATION_TYPE":"U","GP_ID":"208667006","ECCENTRICITY":"0.00013560","MEAN_ELEMENT_THEORY":"SGP4","EPOCH":"2022-07-22T17:37:29.114400","REV_AT_EPOCH":"12551","RA_OF_ASC_NODE":"279.0626","OBJECT_ID":"2020-025AJ","DECAY_DATE":null,"LAUNCH_DATE":"2020-04-22","OBJECT_NAME":"STARLINK-1355","INCLINATION":"53.0521","PERIOD":"95.592","SEMIMAJOR_AXIS":"6925.338","ARG_OF_PERICENTER":"95.2114","REF_FRAME":"TEME","OBJECT_TYPE":"PAYLOAD","TLE_LINE2":"2 45563  53.0521 279.0626 0001356  95.2114 264.9030 15.06403450125516","TLE_LINE1":"1 45563U 20025AJ  22203.73436475  .00007657  00000-0  53235-3 0  9996","MEAN_MOTION_DDOT":"0.0000000000000","EPHEMERIS_TYPE":"0","NORAD_CAT_ID":"45563","MEAN_MOTION_DOT":"0.00007657","CENTER_NAME":"EARTH","COUNTRY_CODE":"US","BSTAR":"0.00053235000000","RCS_SIZE":"LARGE","MEAN_ANOMALY":"264.9030","MEAN_MOTION":"15.06403450"},{"MEAN_MOTION_DOT":"0.00008858","CENTER_NAME":"EARTH","COUNTRY_CODE":"US","BSTAR":"0.00061304000000","MEAN_MOTION_DDOT":"0.0000000000000","EPHEMERIS_TYPE":"0","NORAD_CAT_ID":"45564","MEAN_MOTION":"15.06385644","RCS_SIZE":"LARGE","MEAN_ANOMALY":"271.1482","ARG_OF_PERICENTER":"88.9669","REF_FRAME":"TEME","INCLINATION":"53.0534","PERIOD":"95.593","SEMIMAJOR_AXIS":"6925.393","OBJECT_TYPE":"PAYLOAD","TLE_LINE2":"2 45564  53.0534 279.0797 0001410  88.9669 271.1482 15.06385644125510","TLE_LINE1":"1 45564U 20025AK  22203.73070342  .00008858  00000-0  61304-3 0  9994","EPOCH":"2022-07-22T17:32:12.775488","REV_AT_EPOCH":"12551","OBJECT_ID":"2020-025AK","RA_OF_ASC_NODE":"279.0797","MEAN_ELEMENT_THEORY":"SGP4","LAUNCH_DATE":"2020-04-22","OBJECT_NAME":"STARLINK-1356","DECAY_DATE":null,"PERIAPSIS":"546.281","SITE":"AFETR","TIME_SYSTEM":"UTC","CLASSIFICATION_TYPE":"U","ELEMENT_SET_NO":"999","ECCENTRICITY":"0.00014100","GP_ID":"208667256","APOAPSIS":"548.234","FILE":"3519932"}];
